[{"OBJECT_NAME":"METOP-C","OBJECT_ID":"2018-087A","EPOCH":"2026-03-03T18:25:52.317696","MEAN_MOTION":14.21494751,"ECCENTRICITY":0.000217,"INCLINATION":98.6778,"RA_OF_ASC_NODE":124.2412,"ARG_OF_PERICENTER":108.0188,"MEAN_ANOMALY":252.1226,"EPHEMERIS_TYPE":0,"CLASSIFICATION_TYPE":"U","NORAD_CAT_ID":43689,"ELEMENT_SET_NO":999,"REV_AT_EPOCH":37985,"BSTAR":9.6634e-5,"MEAN_MOTION_DOT":1.68e-6,"MEAN_MOTION_DDOT":0},{"OBJECT_NAME":"GEO-KOMPSAT-2A","OBJECT_ID":"2018-100A","EPOCH":"2026-03-03T12:58:29.015040","MEAN_MOTION":1.00269693,"ECCENTRICITY":0.0001385,"INCLINATION":0.0217,"RA_OF_ASC_NODE":70.8317,"ARG_OF_PERICENTER":331.7632,"MEAN_ANOMALY":81.5654,"EPHEMERIS_TYPE":0,"CLASSIFICATION_TYPE":"U","NORAD_CAT_ID":43823,"ELEMENT_SET_NO":999,"REV_AT_EPOCH":2657,"BSTAR":0,"MEAN_MOTION_DOT":-3.59e-6,"MEAN_MOTION_DDOT":0},{"OBJECT_NAME":"METEOR-M2 2","OBJECT_ID":"2019-038A","EPOCH":"2026-03-03T20:58:55.172352","MEAN_MOTION":14.24330718,"ECCENTRICITY":0.0001198,"INCLINATION":98.9072,"RA_OF_ASC_NODE":48.6452,"ARG_OF_PERICENTER":14.2941,"MEAN_ANOMALY":345.827,"EPHEMERIS_TYPE":0,"CLASSIFICATION_TYPE":"U","NORAD_CAT_ID":44387,"ELEMENT_SET_NO":999,"REV_AT_EPOCH":34630,"BSTAR":4.3571e-5,"MEAN_MOTION_DOT":5.5e-7,"MEAN_MOTION_DDOT":0},{"OBJECT_NAME":"ARKTIKA-M 1","OBJECT_ID":"2021-016A","EPOCH":"2026-03-02T19:44:56.440608","MEAN_MOTION":2.00620868,"ECCENTRICITY":0.72428147,"INCLINATION":63.2036,"RA_OF_ASC_NODE":72.8571,"ARG_OF_PERICENTER":269.4536,"MEAN_ANOMALY":15.2019,"EPHEMERIS_TYPE":0,"CLASSIFICATION_TYPE":"U","NORAD_CAT_ID":47719,"ELEMENT_SET_NO":999,"REV_AT_EPOCH":3665,"BSTAR":0,"MEAN_MOTION_DOT":-1.08e-6,"MEAN_MOTION_DDOT":0},{"OBJECT_NAME":"FENGYUN 3E","OBJECT_ID":"2021-062A","EPOCH":"2026-03-03T20:28:41.239776","MEAN_MOTION":14.1989271,"ECCENTRICITY":0.0002433,"INCLINATION":98.7505,"RA_OF_ASC_NODE":67.4318,"ARG_OF_PERICENTER":53.1093,"MEAN_ANOMALY":307.0306,"EPHEMERIS_TYPE":0,"CLASSIFICATION_TYPE":"U","NORAD_CAT_ID":49008,"ELEMENT_SET_NO":999,"REV_AT_EPOCH":24163,"BSTAR":3.9461e-5,"MEAN_MOTION_DOT":4.0e-7,"MEAN_MOTION_DDOT":0},{"OBJECT_NAME":"GOES 18","OBJECT_ID":"2022-021A","EPOCH":"2026-03-03T18:33:34.996608","MEAN_MOTION":1.00271736,"ECCENTRICITY":6.01e-5,"INCLINATION":0.0285,"RA_OF_ASC_NODE":75.7364,"ARG_OF_PERICENTER":319.5556,"MEAN_ANOMALY":267.6184,"EPHEMERIS_TYPE":0,"CLASSIFICATION_TYPE":"U","NORAD_CAT_ID":51850,"ELEMENT_SET_NO":999,"REV_AT_EPOCH":553,"BSTAR":0,"MEAN_MOTION_DOT":8.3e-7,"MEAN_MOTION_DDOT":0},{"OBJECT_NAME":"NOAA 21 (JPSS-2)","OBJECT_ID":"2022-150A","EPOCH":"2026-03-03T19:14:04.286400","MEAN_MOTION":14.19550285,"ECCENTRICITY":0.0002515,"INCLINATION":98.7549,"RA_OF_ASC_NODE":3.135,"ARG_OF_PERICENTER":117.0283,"MEAN_ANOMALY":243.115,"EPHEMERIS_TYPE":0,"CLASSIFICATION_TYPE":"U","NORAD_CAT_ID":54234,"ELEMENT_SET_NO":999,"REV_AT_EPOCH":17159,"BSTAR":7.2021e-5,"MEAN_MOTION_DOT":1.08e-6,"MEAN_MOTION_DDOT":0},{"OBJECT_NAME":"METEOSAT-12 (MTG-I1)","OBJECT_ID":"2022-170C","EPOCH":"2026-03-03T14:04:30.783360","MEAN_MOTION":1.00274767,"ECCENTRICITY":0.0001882,"INCLINATION":0.745,"RA_OF_ASC_NODE":29.0227,"ARG_OF_PERICENTER":282.4552,"MEAN_ANOMALY":60.7136,"EPHEMERIS_TYPE":0,"CLASSIFICATION_TYPE":"U","NORAD_CAT_ID":54743,"ELEMENT_SET_NO":999,"REV_AT_EPOCH":1191,"BSTAR":0,"MEAN_MOTION_DOT":-2.1e-7,"MEAN_MOTION_DDOT":0},{"OBJECT_NAME":"TIANMU-1 03","OBJECT_ID":"2023-039A","EPOCH":"2026-03-03T20:27:30.071232","MEAN_MOTION":15.439349,"ECCENTRICITY":0.000396,"INCLINATION":97.5167,"RA_OF_ASC_NODE":232.9749,"ARG_OF_PERICENTER":118.0867,"MEAN_ANOMALY":242.0782,"EPHEMERIS_TYPE":0,"CLASSIFICATION_TYPE":"U","NORAD_CAT_ID":55973,"ELEMENT_SET_NO":999,"REV_AT_EPOCH":16456,"BSTAR":0.00049331,"MEAN_MOTION_DOT":0.00022385,"MEAN_MOTION_DDOT":0},{"OBJECT_NAME":"TIANMU-1 04","OBJECT_ID":"2023-039B","EPOCH":"2026-03-03T19:30:12.036384","MEAN_MOTION":15.4433869,"ECCENTRICITY":0.0004629,"INCLINATION":97.5098,"RA_OF_ASC_NODE":232.0958,"ARG_OF_PERICENTER":114.7798,"MEAN_ANOMALY":245.3932,"EPHEMERIS_TYPE":0,"CLASSIFICATION_TYPE":"U","NORAD_CAT_ID":55974,"ELEMENT_SET_NO":999,"REV_AT_EPOCH":16456,"BSTAR":0.00054899,"MEAN_MOTION_DOT":0.00025276,"MEAN_MOTION_DDOT":0},{"OBJECT_NAME":"TIANMU-1 05","OBJECT_ID":"2023-039C","EPOCH":"2026-03-03T21:26:47.679360","MEAN_MOTION":15.43878144,"ECCENTRICITY":0.0003749,"INCLINATION":97.5145,"RA_OF_ASC_NODE":232.671,"ARG_OF_PERICENTER":135.4739,"MEAN_ANOMALY":224.6811,"EPHEMERIS_TYPE":0,"CLASSIFICATION_TYPE":"U","NORAD_CAT_ID":55975,"ELEMENT_SET_NO":999,"REV_AT_EPOCH":16455,"BSTAR":0.00051383,"MEAN_MOTION_DOT":0.00023277,"MEAN_MOTION_DDOT":0},{"OBJECT_NAME":"TIANMU-1 06","OBJECT_ID":"2023-039D","EPOCH":"2026-03-03T19:30:04.801248","MEAN_MOTION":15.44367769,"ECCENTRICITY":0.0004035,"INCLINATION":97.5155,"RA_OF_ASC_NODE":233.1224,"ARG_OF_PERICENTER":131.4762,"MEAN_ANOMALY":228.6833,"EPHEMERIS_TYPE":0,"CLASSIFICATION_TYPE":"U","NORAD_CAT_ID":55976,"ELEMENT_SET_NO":999,"REV_AT_EPOCH":16456,"BSTAR":0.00053248,"MEAN_MOTION_DOT":0.00024533,"MEAN_MOTION_DDOT":0},{"OBJECT_NAME":"FENGYUN 3G","OBJECT_ID":"2023-055A","EPOCH":"2026-03-03T20:21:01.285920","MEAN_MOTION":15.54176618,"ECCENTRICITY":0.0010725,"INCLINATION":49.9931,"RA_OF_ASC_NODE":169.1645,"ARG_OF_PERICENTER":347.1492,"MEAN_ANOMALY":12.9201,"EPHEMERIS_TYPE":0,"CLASSIFICATION_TYPE":"U","NORAD_CAT_ID":56232,"ELEMENT_SET_NO":999,"REV_AT_EPOCH":16363,"BSTAR":0.00062933,"MEAN_MOTION_DOT":0.0004163,"MEAN_MOTION_DDOT":0},{"OBJECT_NAME":"METEOR-M2 3","OBJECT_ID":"2023-091A","EPOCH":"2026-03-03T20:17:10.483008","MEAN_MOTION":14.24036972,"ECCENTRICITY":0.0005036,"INCLINATION":98.6227,"RA_OF_ASC_NODE":119.9152,"ARG_OF_PERICENTER":112.505,"MEAN_ANOMALY":247.6663,"EPHEMERIS_TYPE":0,"CLASSIFICATION_TYPE":"U","NORAD_CAT_ID":57166,"ELEMENT_SET_NO":999,"REV_AT_EPOCH":13952,"BSTAR":3.1544e-5,"MEAN_MOTION_DOT":2.9e-7,"MEAN_MOTION_DDOT":0},{"OBJECT_NAME":"TIANMU-1 07","OBJECT_ID":"2023-101A","EPOCH":"2026-03-03T18:15:16.127712","MEAN_MOTION":15.29128212,"ECCENTRICITY":0.0004593,"INCLINATION":97.273,"RA_OF_ASC_NODE":115.8436,"ARG_OF_PERICENTER":144.4705,"MEAN_ANOMALY":215.6842,"EPHEMERIS_TYPE":0,"CLASSIFICATION_TYPE":"U","NORAD_CAT_ID":57399,"ELEMENT_SET_NO":999,"REV_AT_EPOCH":14553,"BSTAR":0.0003539,"MEAN_MOTION_DOT":9.938e-5,"MEAN_MOTION_DDOT":0},{"OBJECT_NAME":"TIANMU-1 08","OBJECT_ID":"2023-101B","EPOCH":"2026-03-03T20:40:34.559040","MEAN_MOTION":15.29233391,"ECCENTRICITY":0.0006433,"INCLINATION":97.2728,"RA_OF_ASC_NODE":115.7189,"ARG_OF_PERICENTER":142.0872,"MEAN_ANOMALY":218.0823,"EPHEMERIS_TYPE":0,"CLASSIFICATION_TYPE":"U","NORAD_CAT_ID":57400,"ELEMENT_SET_NO":999,"REV_AT_EPOCH":14554,"BSTAR":2.0504e-5,"MEAN_MOTION_DOT":5.09e-6,"MEAN_MOTION_DDOT":0},{"OBJECT_NAME":"TIANMU-1 09","OBJECT_ID":"2023-101C","EPOCH":"2026-03-03T20:13:42.023136","MEAN_MOTION":15.29217891,"ECCENTRICITY":0.0005252,"INCLINATION":97.2684,"RA_OF_ASC_NODE":115.1798,"ARG_OF_PERICENTER":149.5222,"MEAN_ANOMALY":210.6325,"EPHEMERIS_TYPE":0,"CLASSIFICATION_TYPE":"U","NORAD_CAT_ID":57401,"ELEMENT_SET_NO":999,"REV_AT_EPOCH":14554,"BSTAR":2.9842e-5,"MEAN_MOTION_DOT":7.74e-6,"MEAN_MOTION_DDOT":0}]
