METOP-C                 
1 43689U 18087A   26062.76796664  .00000168  00000+0  96634-4 0  9997
2 43689  98.6778 124.2412 0002170 108.0188 252.1226 14.21494751379859
GEO-KOMPSAT-2A          
1 43823U 18100A   26062.54061360 -.00000359  00000+0  00000+0 0  9997
2 43823   0.0217  70.8317 0001385 331.7632  81.5654  1.00269693 26575
METEOR-M2 2             
1 44387U 19038A   26062.87424968  .00000055  00000+0  43571-4 0  9994
2 44387  98.9072  48.6452 0001198  14.2941 345.8270 14.24330718346300
ARKTIKA-M 1             
1 47719U 21016A   26061.82287547 -.00000108  00000+0  00000+0 0  9994
2 47719  63.2036  72.8571 7242814 269.4536  15.2019  2.00620868 36653
FENGYUN 3E              
1 49008U 21062A   26062.85325509  .00000040  00000+0  39461-4 0  9995
2 49008  98.7505  67.4318 0002433  53.1093 307.0306 14.19892710241636
GOES 18                 
1 51850U 22021A   26062.77332172  .00000083  00000+0  00000+0 0  9993
2 51850   0.0285  75.7364 0000601 319.5556 267.6184  1.00271736  5533
NOAA 21 (JPSS-2)        
1 54234U 22150A   26062.80143850  .00000108  00000+0  72021-4 0  9997
2 54234  98.7549   3.1350 0002515 117.0283 243.1150 14.19550285171598
METEOSAT-12 (MTG-I1)    
1 54743U 22170C   26062.58646740 -.00000021  00000+0  00000+0 0  9993
2 54743   0.7450  29.0227 0001882 282.4552  60.7136  1.00274767 11919
TIANMU-1 03             
1 55973U 23039A   26062.85243138  .00022385  00000+0  49331-3 0  9998
2 55973  97.5167 232.9749 0003960 118.0867 242.0782 15.43934900164566
TIANMU-1 04             
1 55974U 23039B   26062.81263931  .00025276  00000+0  54899-3 0  9995
2 55974  97.5098 232.0958 0004629 114.7798 245.3932 15.44338690164560
TIANMU-1 05             
1 55975U 23039C   26062.89360740  .00023277  00000+0  51383-3 0  9994
2 55975  97.5145 232.6710 0003749 135.4739 224.6811 15.43878144164550
TIANMU-1 06             
1 55976U 23039D   26062.81255557  .00024533  00000+0  53248-3 0  9994
2 55976  97.5155 233.1224 0004035 131.4762 228.6833 15.44367769164565
FENGYUN 3G              
1 56232U 23055A   26062.84793155  .00041630  00000+0  62933-3 0  9990
2 56232  49.9931 169.1645 0010725 347.1492  12.9201 15.54176618163630
METEOR-M2 3             
1 57166U 23091A   26062.84526022  .00000029  00000+0  31544-4 0  9996
2 57166  98.6227 119.9152 0005036 112.5050 247.6663 14.24036972139529
TIANMU-1 07             
1 57399U 23101A   26062.76060333  .00009938  00000+0  35390-3 0  9995
2 57399  97.2730 115.8436 0004593 144.4705 215.6842 15.29128212145536
TIANMU-1 08             
1 57400U 23101B   26062.86151110  .00000509  00000+0  20504-4 0  9990
2 57400  97.2728 115.7189 0006433 142.0872 218.0823 15.29233391145546
TIANMU-1 09             
1 57401U 23101C   26062.84284749  .00000774  00000+0  29842-4 0  9992
2 57401  97.2684 115.1798 0005252 149.5222 210.6325 15.29217891145549
